O3B MPOWER F1           
1 54755U 22174A   26196.73884091 -.00000024  00000+0  00000+0 0  9991
2 54755   0.0491 339.3644 0006640 145.6318 254.9145  5.00114750 66788
O3B MPOWER F2           
1 54756U 22174B   26195.69507568 -.00000023  00000+0  00000+0 0  9996
2 54756   0.0451 339.8088 0005789 128.0659 252.1850  5.00114920 66825
O3B MPOWER F4           
1 56367U 23059A   26196.75875751 -.00000024  00000+0  00000+0 0  9990
2 56367   0.0629 349.8454 0007731 127.6337 242.5957  5.00115419 60039
O3B MPOWER F3           
1 56368U 23059B   26196.79188931 -.00000024  00000+0  00000+0 0  9992
2 56368   0.0636 349.1116 0006665 121.7277 249.2283  5.00116378 56169
O3B MPOWER F5           
1 58346U 23175A   26196.69299611 -.00000024  00000+0  00000+0 0  9996
2 58346   0.0523   9.1119 0005512 123.2447 227.6862  5.00115839 50869
O3B MPOWER F6           
1 58347U 23175B   26196.79347358 -.00000024  00000+0  00000+0 0  9990
2 58347   0.0541   0.7911 0004427 112.2083 247.0434  5.00115720 49784
O3B MPOWER F7           
1 62362U 24244A   26196.85987498 -.00000024  00000+0  00000+0 0  9992
2 62362   0.0659 342.6869 0005923 127.7728 249.6000  5.00115288 27956
O3B MPOWER F8           
1 62363U 24244B   26196.82682564 -.00000024  00000+0  00000+0 0  9996
2 62363   0.0145   4.9387 0005749  98.0226 257.0989  5.00115005 22309
O3B MPOWER F9           
1 64866U 25153A   26196.36042618 -.00000024  00000+0  00000+0 0  9995
2 64866   0.0613   5.5162 0006731 126.6630 227.8743  5.00115544 20978
O3B MPOWER F10          
1 64867U 25153B   26196.92615106 -.00000024  00000+0  00000+0 0  9996
2 64867   0.0585   2.0722 0002421 245.7809 112.1172  5.00114855 23467
