{"fetched_at":"2026-07-16T06:43:11.009Z","source":"https://celestrak.org/NORAD/elements/gp.php?NAME=O3B&FORMAT=JSON","constellation":"o3b-mpower","records":[{"OBJECT_NAME":"O3B MPOWER F1","OBJECT_ID":"2022-174A","EPOCH":"2026-07-15T17:43:55.854624","CLASSIFICATION_TYPE":"U","MEAN_MOTION":5.0011475,"ECCENTRICITY":0.00066403,"INCLINATION":0.0491,"RA_OF_ASC_NODE":339.3644,"ARG_OF_PERICENTER":145.6318,"MEAN_ANOMALY":254.9145,"EPHEMERIS_TYPE":0,"NORAD_CAT_ID":54755,"ELEMENT_SET_NO":999,"REV_AT_EPOCH":6678,"BSTAR":0,"MEAN_MOTION_DOT":-2.4e-7,"MEAN_MOTION_DDOT":0},{"OBJECT_NAME":"O3B MPOWER F2","OBJECT_ID":"2022-174B","EPOCH":"2026-07-14T16:40:54.538752","CLASSIFICATION_TYPE":"U","MEAN_MOTION":5.0011492,"ECCENTRICITY":0.00057894,"INCLINATION":0.0451,"RA_OF_ASC_NODE":339.8088,"ARG_OF_PERICENTER":128.0659,"MEAN_ANOMALY":252.185,"EPHEMERIS_TYPE":0,"NORAD_CAT_ID":54756,"ELEMENT_SET_NO":999,"REV_AT_EPOCH":6682,"BSTAR":0,"MEAN_MOTION_DOT":-2.3e-7,"MEAN_MOTION_DDOT":0},{"OBJECT_NAME":"O3B MPOWER F4","OBJECT_ID":"2023-059A","EPOCH":"2026-07-15T18:12:36.648864","CLASSIFICATION_TYPE":"U","MEAN_MOTION":5.00115419,"ECCENTRICITY":0.00077317,"INCLINATION":0.0629,"RA_OF_ASC_NODE":349.8454,"ARG_OF_PERICENTER":127.6337,"MEAN_ANOMALY":242.5957,"EPHEMERIS_TYPE":0,"NORAD_CAT_ID":56367,"ELEMENT_SET_NO":999,"REV_AT_EPOCH":6003,"BSTAR":0,"MEAN_MOTION_DOT":-2.4e-7,"MEAN_MOTION_DDOT":0},{"OBJECT_NAME":"O3B MPOWER F3","OBJECT_ID":"2023-059B","EPOCH":"2026-07-15T19:00:19.236384","CLASSIFICATION_TYPE":"U","MEAN_MOTION":5.00116378,"ECCENTRICITY":0.00066656,"INCLINATION":0.0636,"RA_OF_ASC_NODE":349.1116,"ARG_OF_PERICENTER":121.7277,"MEAN_ANOMALY":249.2283,"EPHEMERIS_TYPE":0,"NORAD_CAT_ID":56368,"ELEMENT_SET_NO":999,"REV_AT_EPOCH":5616,"BSTAR":0,"MEAN_MOTION_DOT":-2.4e-7,"MEAN_MOTION_DDOT":0},{"OBJECT_NAME":"O3B MPOWER F5","OBJECT_ID":"2023-175A","EPOCH":"2026-07-15T16:37:54.863904","CLASSIFICATION_TYPE":"U","MEAN_MOTION":5.00115839,"ECCENTRICITY":0.00055123,"INCLINATION":0.0523,"RA_OF_ASC_NODE":9.1119,"ARG_OF_PERICENTER":123.2447,"MEAN_ANOMALY":227.6862,"EPHEMERIS_TYPE":0,"NORAD_CAT_ID":58346,"ELEMENT_SET_NO":999,"REV_AT_EPOCH":5086,"BSTAR":0,"MEAN_MOTION_DOT":-2.4e-7,"MEAN_MOTION_DDOT":0},{"OBJECT_NAME":"O3B MPOWER F6","OBJECT_ID":"2023-175B","EPOCH":"2026-07-15T19:02:36.117312","CLASSIFICATION_TYPE":"U","MEAN_MOTION":5.0011572,"ECCENTRICITY":0.0004427,"INCLINATION":0.0541,"RA_OF_ASC_NODE":0.7911,"ARG_OF_PERICENTER":112.2083,"MEAN_ANOMALY":247.0434,"EPHEMERIS_TYPE":0,"NORAD_CAT_ID":58347,"ELEMENT_SET_NO":999,"REV_AT_EPOCH":4978,"BSTAR":0,"MEAN_MOTION_DOT":-2.4e-7,"MEAN_MOTION_DDOT":0},{"OBJECT_NAME":"O3B MPOWER F7","OBJECT_ID":"2024-244A","EPOCH":"2026-07-15T20:38:13.198272","CLASSIFICATION_TYPE":"U","MEAN_MOTION":5.00115288,"ECCENTRICITY":0.00059237,"INCLINATION":0.0659,"RA_OF_ASC_NODE":342.6869,"ARG_OF_PERICENTER":127.7728,"MEAN_ANOMALY":249.6,"EPHEMERIS_TYPE":0,"NORAD_CAT_ID":62362,"ELEMENT_SET_NO":999,"REV_AT_EPOCH":2795,"BSTAR":0,"MEAN_MOTION_DOT":-2.4e-7,"MEAN_MOTION_DDOT":0},{"OBJECT_NAME":"O3B MPOWER F8","OBJECT_ID":"2024-244B","EPOCH":"2026-07-15T19:50:37.735296","CLASSIFICATION_TYPE":"U","MEAN_MOTION":5.00115005,"ECCENTRICITY":0.00057495,"INCLINATION":0.0145,"RA_OF_ASC_NODE":4.9387,"ARG_OF_PERICENTER":98.0226,"MEAN_ANOMALY":257.0989,"EPHEMERIS_TYPE":0,"NORAD_CAT_ID":62363,"ELEMENT_SET_NO":999,"REV_AT_EPOCH":2230,"BSTAR":0,"MEAN_MOTION_DOT":-2.4e-7,"MEAN_MOTION_DDOT":0},{"OBJECT_NAME":"O3B MPOWER F9","OBJECT_ID":"2025-153A","EPOCH":"2026-07-15T08:39:00.821952","CLASSIFICATION_TYPE":"U","MEAN_MOTION":5.00115544,"ECCENTRICITY":0.00067313,"INCLINATION":0.0613,"RA_OF_ASC_NODE":5.5162,"ARG_OF_PERICENTER":126.663,"MEAN_ANOMALY":227.8743,"EPHEMERIS_TYPE":0,"NORAD_CAT_ID":64866,"ELEMENT_SET_NO":999,"REV_AT_EPOCH":2097,"BSTAR":0,"MEAN_MOTION_DOT":-2.4e-7,"MEAN_MOTION_DDOT":0},{"OBJECT_NAME":"O3B MPOWER F10","OBJECT_ID":"2025-153B","EPOCH":"2026-07-15T22:13:39.451584","CLASSIFICATION_TYPE":"U","MEAN_MOTION":5.00114855,"ECCENTRICITY":0.00024216,"INCLINATION":0.0585,"RA_OF_ASC_NODE":2.0722,"ARG_OF_PERICENTER":245.7809,"MEAN_ANOMALY":112.1172,"EPHEMERIS_TYPE":0,"NORAD_CAT_ID":64867,"ELEMENT_SET_NO":999,"REV_AT_EPOCH":2346,"BSTAR":0,"MEAN_MOTION_DOT":-2.4e-7,"MEAN_MOTION_DDOT":0}]}
